[{"OBJECT_NAME":"STARLINK-30068","OBJECT_ID":"2023-067L","EPOCH":"2026-03-09T22:00:01.999584","MEAN_MOTION":15.26725268,"ECCENTRICITY":0.00017078,"INCLINATION":43.0002,"RA_OF_ASC_NODE":258.5612,"ARG_OF_PERICENTER":287.215,"MEAN_ANOMALY":82.587,"EPHEMERIS_TYPE":0,"CLASSIFICATION_TYPE":"U","NORAD_CAT_ID":56698,"ELEMENT_SET_NO":999,"REV_AT_EPOCH":578,"BSTAR":0.0021438096,"MEAN_MOTION_DOT":0.00057671,"MEAN_MOTION_DDOT":0},{"OBJECT_NAME":"CZ-6A DEB","OBJECT_ID":"2024-140JQ","EPOCH":"2026-03-09T16:05:49.477056","MEAN_MOTION":15.15394204,"ECCENTRICITY":0.00800164,"INCLINATION":89.0638,"RA_OF_ASC_NODE":284.0631,"ARG_OF_PERICENTER":105.771,"MEAN_ANOMALY":255.2376,"EPHEMERIS_TYPE":0,"CLASSIFICATION_TYPE":"U","NORAD_CAT_ID":60861,"ELEMENT_SET_NO":999,"REV_AT_EPOCH":8511,"BSTAR":0.0025246282,"MEAN_MOTION_DOT":0.00051962,"MEAN_MOTION_DDOT":0}]
